{
    "links": {
        "self": "http://www.neowsapp.com/rest/v1/neo/3405333?api_key=iIulBulltgU6a56xZRHN4H3l9WmuAYTsLGpBGhQ2"
    },
    "id": "3405333",
    "neo_reference_id": "3405333",
    "name": "(2008 EC32)",
    "designation": "2008 EC32",
    "nasa_jpl_url": "http://ssd.jpl.nasa.gov/sbdb.cgi?sstr=3405333",
    "absolute_magnitude_h": 26.7,
    "estimated_diameter": {
        "kilometers": {
            "estimated_diameter_min": 0.0121494041,
            "estimated_diameter_max": 0.0271668934
        },
        "meters": {
            "estimated_diameter_min": 12.14940408,
            "estimated_diameter_max": 27.1668934089
        },
        "miles": {
            "estimated_diameter_min": 0.0075492874,
            "estimated_diameter_max": 0.0168807197
        },
        "feet": {
            "estimated_diameter_min": 39.8602508817,
            "estimated_diameter_max": 89.1302305717
        }
    },
    "is_potentially_hazardous_asteroid": false,
    "close_approach_data": [
        {
            "close_approach_date": "1926-03-29",
            "close_approach_date_full": "1926-Mar-29 12:40",
            "epoch_date_close_approach": -1380972000000,
            "relative_velocity": {
                "kilometers_per_second": "29.2078777642",
                "kilometers_per_hour": "105148.3599510592",
                "miles_per_hour": "65335.1017707012"
            },
            "miss_distance": {
                "astronomical": "0.4365224806",
                "lunar": "169.8072449534",
                "kilometers": "65302833.304876322",
                "miles": "40577299.0212923636"
            },
            "orbiting_body": "Earth"
        },
        {
            "close_approach_date": "2008-03-07",
            "close_approach_date_full": "2008-Mar-07 07:29",
            "epoch_date_close_approach": 1204874940000,
            "relative_velocity": {
                "kilometers_per_second": "17.0343622966",
                "kilometers_per_hour": "61323.7042677114",
                "miles_per_hour": "38104.1650212343"
            },
            "miss_distance": {
                "astronomical": "0.0051429457",
                "lunar": "2.0006058773",
                "kilometers": "769373.722245659",
                "miles": "478066.6627577342"
            },
            "orbiting_body": "Moon"
        },
        {
            "close_approach_date": "2008-03-07",
            "close_approach_date_full": "2008-Mar-07 13:24",
            "epoch_date_close_approach": 1204896240000,
            "relative_velocity": {
                "kilometers_per_second": "16.7873594711",
                "kilometers_per_hour": "60434.4940961224",
                "miles_per_hour": "37551.6444010045"
            },
            "miss_distance": {
                "astronomical": "0.0050959823",
                "lunar": "1.9823371147",
                "kilometers": "762348.097637701",
                "miles": "473701.1420582338"
            },
            "orbiting_body": "Earth"
        },
        {
            "close_approach_date": "2045-09-28",
            "close_approach_date_full": "2045-Sep-28 15:50",
            "epoch_date_close_approach": 2390226600000,
            "relative_velocity": {
                "kilometers_per_second": "24.8344720126",
                "kilometers_per_hour": "89404.099245203",
                "miles_per_hour": "55552.2304448874"
            },
            "miss_distance": {
                "astronomical": "0.2831531669",
                "lunar": "110.1465819241",
                "kilometers": "42359110.651994503",
                "miles": "26320730.8506420214"
            },
            "orbiting_body": "Earth"
        }
    ],
    "orbital_data": {
        "orbit_id": "6",
        "orbit_determination_date": "2017-04-06 09:04:03",
        "first_observation_date": "2008-03-10",
        "last_observation_date": "2008-03-11",
        "data_arc_in_days": 1,
        "observations_used": 30,
        "orbit_uncertainty": "8",
        "minimum_orbit_intersection": ".00506664",
        "jupiter_tisserand_invariant": "3.506",
        "epoch_osculation": "2454536.5",
        "eccentricity": ".6484349517823187",
        "semi_major_axis": "2.037657465865831",
        "inclination": "1.876833913849121",
        "ascending_node_longitude": "356.2266344006212",
        "orbital_period": "1062.417454131526",
        "perihelion_distance": ".7163691452382391",
        "perihelion_argument": "98.03638732376336",
        "aphelion_distance": "3.358945786493423",
        "perihelion_time": "2454488.793295690150",
        "mean_anomaly": "16.16540982526048",
        "mean_motion": ".338849854734627",
        "equinox": "J2000",
        "orbit_class": {
            "orbit_class_type": "APO",
            "orbit_class_description": "Near-Earth asteroid orbits which cross the Earth’s orbit similar to that of 1862 Apollo",
            "orbit_class_range": "a (semi-major axis) > 1.0 AU; q (perihelion) < 1.017 AU"
        }
    },
    "is_sentry_object": false
}